[{"OBJECT_NAME":"QIANFAN-66","OBJECT_ID":"2025-016M","EPOCH":"2026-03-09T22:22:46.685856","MEAN_MOTION":13.50997126,"ECCENTRICITY":0.00171901,"INCLINATION":88.969,"RA_OF_ASC_NODE":94.0072,"ARG_OF_PERICENTER":88.1203,"MEAN_ANOMALY":272.1916,"EPHEMERIS_TYPE":0,"CLASSIFICATION_TYPE":"U","NORAD_CAT_ID":62796,"ELEMENT_SET_NO":999,"REV_AT_EPOCH":5906,"BSTAR":4.2297023e-5,"MEAN_MOTION_DOT":4.0e-7,"MEAN_MOTION_DDOT":0},{"OBJECT_NAME":"SL-14 DEB","OBJECT_ID":"1991-056BU","EPOCH":"2026-03-09T05:50:05.397792","MEAN_MOTION":13.39322496,"ECCENTRICITY":0.00820503,"INCLINATION":82.5627,"RA_OF_ASC_NODE":159.1284,"ARG_OF_PERICENTER":125.9381,"MEAN_ANOMALY":234.9402,"EPHEMERIS_TYPE":0,"CLASSIFICATION_TYPE":"U","NORAD_CAT_ID":45330,"ELEMENT_SET_NO":999,"REV_AT_EPOCH":29568,"BSTAR":0.0022703856,"MEAN_MOTION_DOT":1.26e-5,"MEAN_MOTION_DDOT":0}]
